GOES 19                 
1 60133U 24119A   26064.92492288 -.00000254  00000+0  00000+0 0  9992
2 60133   0.0057  76.8477 0001098 312.7694  31.8042  1.00271692  5928
FENGYUN 3H              
1 65815U 25219A   26064.94955113  .00000117  00000+0  75288-4 0  9991
2 65815  98.6682   7.7754 0001365  63.6842 296.4474 14.19931351 22737
