[{"OBJECT_NAME":"GOES 19","OBJECT_ID":"2024-119A","EPOCH":"2026-03-05T22:11:53.336832","MEAN_MOTION":1.00271692,"ECCENTRICITY":0.00010984,"INCLINATION":0.0057,"RA_OF_ASC_NODE":76.8477,"ARG_OF_PERICENTER":312.7694,"MEAN_ANOMALY":31.8042,"EPHEMERIS_TYPE":0,"CLASSIFICATION_TYPE":"U","NORAD_CAT_ID":60133,"ELEMENT_SET_NO":999,"REV_AT_EPOCH":592,"BSTAR":0,"MEAN_MOTION_DOT":-2.54e-6,"MEAN_MOTION_DDOT":0},{"OBJECT_NAME":"FENGYUN 3H","OBJECT_ID":"2025-219A","EPOCH":"2026-03-05T22:47:21.217632","MEAN_MOTION":14.19931351,"ECCENTRICITY":0.00013656,"INCLINATION":98.6682,"RA_OF_ASC_NODE":7.7754,"ARG_OF_PERICENTER":63.6842,"MEAN_ANOMALY":296.4474,"EPHEMERIS_TYPE":0,"CLASSIFICATION_TYPE":"U","NORAD_CAT_ID":65815,"ELEMENT_SET_NO":999,"REV_AT_EPOCH":2273,"BSTAR":7.5287943e-5,"MEAN_MOTION_DOT":1.17e-6,"MEAN_MOTION_DDOT":0}]
